CCSDS_OMM_VERS = 2.0
CREATION_DATE  = 
ORIGINATOR     = 

OBJECT_NAME    = CZ-2C R/B
OBJECT_ID      = 2022-132E
CENTER_NAME    = EARTH
REF_FRAME      = TEME
TIME_SYSTEM    = UTC
MEAN_ELEMENT_THEORY = SGP/SGP4

EPOCH          = 2026-02-15T22:59:55.657248
MEAN_MOTION    = 15.59911685
ECCENTRICITY   = .00193324
INCLINATION    = 97.2955
RA_OF_ASC_NODE = 49.6504
ARG_OF_PERICENTER = 162.7265
MEAN_ANOMALY   = 197.4654

EPHEMERIS_TYPE = 0
CLASSIFICATION_TYPE = U
NORAD_CAT_ID   = 54039
ELEMENT_SET_NO = 999
REV_AT_EPOCH   = 18698
BSTAR          = .51338111E-3
MEAN_MOTION_DOT = .41728E-3
MEAN_MOTION_DDOT = 0

CCSDS_OMM_VERS = 2.0
CREATION_DATE  = 
ORIGINATOR     = 

OBJECT_NAME    = GSLV R/B
OBJECT_ID      = 2022-138AN
CENTER_NAME    = EARTH
REF_FRAME      = TEME
TIME_SYSTEM    = UTC
MEAN_ELEMENT_THEORY = SGP/SGP4

EPOCH          = 2026-02-15T20:35:06.345312
MEAN_MOTION    = 14.96604586
ECCENTRICITY   = .00199222
INCLINATION    = 87.3871
RA_OF_ASC_NODE = 173.6669
ARG_OF_PERICENTER = 226.6587
MEAN_ANOMALY   = 133.2985

EPHEMERIS_TYPE = 0
CLASSIFICATION_TYPE = U
NORAD_CAT_ID   = 54149
ELEMENT_SET_NO = 999
REV_AT_EPOCH   = 18066
BSTAR          = .30119723E-3
MEAN_MOTION_DOT = .347E-4
MEAN_MOTION_DDOT = 0

CCSDS_OMM_VERS = 2.0
CREATION_DATE  = 
ORIGINATOR     = 

OBJECT_NAME    = XRISM
OBJECT_ID      = 2023-137A
CENTER_NAME    = EARTH
REF_FRAME      = TEME
TIME_SYSTEM    = UTC
MEAN_ELEMENT_THEORY = SGP/SGP4

EPOCH          = 2026-02-15T10:47:56.870592
MEAN_MOTION    = 15.11224789
ECCENTRICITY   = .00081912
INCLINATION    = 31.0028
RA_OF_ASC_NODE = 67.4751
ARG_OF_PERICENTER = 177.9279
MEAN_ANOMALY   = 182.1394

EPHEMERIS_TYPE = 0
CLASSIFICATION_TYPE = U
NORAD_CAT_ID   = 57800
ELEMENT_SET_NO = 999
REV_AT_EPOCH   = 13442
BSTAR          = .42647842E-3
MEAN_MOTION_DOT = .7449E-4
MEAN_MOTION_DDOT = 0

CCSDS_OMM_VERS = 2.0
CREATION_DATE  = 
ORIGINATOR     = 

OBJECT_NAME    = ACS3
OBJECT_ID      = 2024-077B
CENTER_NAME    = EARTH
REF_FRAME      = TEME
TIME_SYSTEM    = UTC
MEAN_ELEMENT_THEORY = SGP/SGP4

EPOCH          = 2026-02-15T19:36:09.372960
MEAN_MOTION    = 13.88678939
ECCENTRICITY   = .00473363
INCLINATION    = 97.2187
RA_OF_ASC_NODE = 352.8461
ARG_OF_PERICENTER = 142.0192
MEAN_ANOMALY   = 218.4326

EPHEMERIS_TYPE = 0
CLASSIFICATION_TYPE = U
NORAD_CAT_ID   = 59588
ELEMENT_SET_NO = 999
REV_AT_EPOCH   = 9116
BSTAR          = .17289311E-1
MEAN_MOTION_DOT = .21042E-3
MEAN_MOTION_DDOT = 0

CCSDS_OMM_VERS = 2.0
CREATION_DATE  = 
ORIGINATOR     = 

OBJECT_NAME    = SZ-21 MODULE
OBJECT_ID      = 2025-246C
CENTER_NAME    = EARTH
REF_FRAME      = TEME
TIME_SYSTEM    = UTC
MEAN_ELEMENT_THEORY = SGP/SGP4

EPOCH          = 2026-02-15T04:52:02.803872
MEAN_MOTION    = 15.66814588
ECCENTRICITY   = .0002175
INCLINATION    = 41.4768
RA_OF_ASC_NODE = 341.5977
ARG_OF_PERICENTER = 296.5638
MEAN_ANOMALY   = 63.4980

EPHEMERIS_TYPE = 0
CLASSIFICATION_TYPE = U
NORAD_CAT_ID   = 66515
ELEMENT_SET_NO = 999
REV_AT_EPOCH   = 1454
BSTAR          = .37236E-3
MEAN_MOTION_DOT = .4035E-3
MEAN_MOTION_DDOT = 0

