CZ-2C R/B               
1 54039U 22132E   26046.95828307  .00041728  00000+0  51338-3 0  9995
2 54039  97.2955  49.6504 0019332 162.7265 197.4654 15.59911685186983
GSLV R/B                
1 54149U 22138AN  26046.85771233  .00003470  00000+0  30120-3 0  9995
2 54149  87.3871 173.6669 0019922 226.6587 133.2985 14.96604586180667
XRISM                   
1 57800U 23137A   26046.44996378  .00007449  00000+0  42648-3 0  9994
2 57800  31.0028  67.4751 0008191 177.9279 182.1394 15.11224789134429
ACS3                    
1 59588U 24077B   26046.81677515  .00021042  00000+0  17289-1 0  9999
2 59588  97.2187 352.8461 0047336 142.0192 218.4326 13.88678939 91167
SZ-21 MODULE            
1 66515U 25246C   26046.20281023  .00040350  00000+0  37236-3 0  9993
2 66515  41.4768 341.5977 0002175 296.5638  63.4980 15.66814588 14541
